JILIN-1                 
1 40961U 15057D   26195.15782446  .00000405  00000+0  62416-4 0  9999
2 40961  97.6519 193.1871 0017129 170.2251 189.9298 14.78200523579590
JILIN-1 03              
1 41914U 17002B   26195.21789752  .00008099  00000+0  19041-3 0  9996
2 41914  97.1945 201.9331 0007908  82.0483 278.1662 15.42215576526029
JILIN-1 04              
1 43022U 17074A   26195.19766756  .00008866  00000+0  20237-3 0  9994
2 43022  97.4880 305.5452 0005266 102.9747 257.2089 15.43114230478435
JILIN-1 05              
1 43023U 17074B   26195.19067566  .00005135  00000+0  15717-3 0  9991
2 43023  97.4885 301.7191 0006418 127.3152 232.8676 15.34276073478143
JILIN-1 06              
1 43024U 17074C   26195.16639039  .00003548  00000+0  11032-3 0  9991
2 43024  97.4809 298.6680 0008029 137.2015 222.9854 15.33988654477977
JILIN-1 07              
1 43159U 18008E   26195.21253514  .00005284  00000+0  15707-3 0  9996
2 43159  97.1762 214.4270 0006821 332.3906  27.6975 15.35154558469141
JILIN-1 08              
1 43160U 18008F   26195.16660428  .00003567  00000+0  11073-3 0  9992
2 43160  97.1800 213.6682 0005431 356.6348   3.4858 15.34003078469083
JILIN-1 09              
1 43943U 19005B   26195.22555642  .00002516  00000+0  11752-3 0  9994
2 43943  97.4749 289.9614 0002429  38.7046 321.4363 15.20736103413254
JILIN-1 10              
1 43946U 19005E   26195.21057905  .00003434  00000+0  13633-3 0  9995
2 43946  97.4801 294.0207 0008485 173.0833 187.0524 15.26000291413439
