{"fetched_at":"2026-07-14T17:40:51.801Z","source":"https://celestrak.org/NORAD/elements/gp.php?NAME=JILIN&FORMAT=JSON","constellation":"jilin-1-early","records":[{"OBJECT_NAME":"JILIN-1","OBJECT_ID":"2015-057D","EPOCH":"2026-07-14T03:47:16.033344","CLASSIFICATION_TYPE":"U","MEAN_MOTION":14.78200523,"ECCENTRICITY":0.0017129,"INCLINATION":97.6519,"RA_OF_ASC_NODE":193.1871,"ARG_OF_PERICENTER":170.2251,"MEAN_ANOMALY":189.9298,"EPHEMERIS_TYPE":0,"NORAD_CAT_ID":40961,"ELEMENT_SET_NO":999,"REV_AT_EPOCH":57959,"BSTAR":0.000062416,"MEAN_MOTION_DOT":0.00000405,"MEAN_MOTION_DDOT":0},{"OBJECT_NAME":"JILIN-1 03","OBJECT_ID":"2017-002B","EPOCH":"2026-07-14T05:13:46.345728","CLASSIFICATION_TYPE":"U","MEAN_MOTION":15.42215576,"ECCENTRICITY":0.0007908,"INCLINATION":97.1945,"RA_OF_ASC_NODE":201.9331,"ARG_OF_PERICENTER":82.0483,"MEAN_ANOMALY":278.1662,"EPHEMERIS_TYPE":0,"NORAD_CAT_ID":41914,"ELEMENT_SET_NO":999,"REV_AT_EPOCH":52602,"BSTAR":0.00019041,"MEAN_MOTION_DOT":0.00008099,"MEAN_MOTION_DDOT":0},{"OBJECT_NAME":"JILIN-1 04","OBJECT_ID":"2017-074A","EPOCH":"2026-07-14T04:44:38.477184","CLASSIFICATION_TYPE":"U","MEAN_MOTION":15.4311423,"ECCENTRICITY":0.0005266,"INCLINATION":97.488,"RA_OF_ASC_NODE":305.5452,"ARG_OF_PERICENTER":102.9747,"MEAN_ANOMALY":257.2089,"EPHEMERIS_TYPE":0,"NORAD_CAT_ID":43022,"ELEMENT_SET_NO":999,"REV_AT_EPOCH":47843,"BSTAR":0.00020237,"MEAN_MOTION_DOT":0.00008866,"MEAN_MOTION_DDOT":0},{"OBJECT_NAME":"JILIN-1 05","OBJECT_ID":"2017-074B","EPOCH":"2026-07-14T04:34:34.377024","CLASSIFICATION_TYPE":"U","MEAN_MOTION":15.34276073,"ECCENTRICITY":0.0006418,"INCLINATION":97.4885,"RA_OF_ASC_NODE":301.7191,"ARG_OF_PERICENTER":127.3152,"MEAN_ANOMALY":232.8676,"EPHEMERIS_TYPE":0,"NORAD_CAT_ID":43023,"ELEMENT_SET_NO":999,"REV_AT_EPOCH":47814,"BSTAR":0.00015717,"MEAN_MOTION_DOT":0.00005135,"MEAN_MOTION_DDOT":0},{"OBJECT_NAME":"JILIN-1 06","OBJECT_ID":"2017-074C","EPOCH":"2026-07-14T03:59:36.129696","CLASSIFICATION_TYPE":"U","MEAN_MOTION":15.33988654,"ECCENTRICITY":0.0008029,"INCLINATION":97.4809,"RA_OF_ASC_NODE":298.668,"ARG_OF_PERICENTER":137.2015,"MEAN_ANOMALY":222.9854,"EPHEMERIS_TYPE":0,"NORAD_CAT_ID":43024,"ELEMENT_SET_NO":999,"REV_AT_EPOCH":47797,"BSTAR":0.00011032,"MEAN_MOTION_DOT":0.00003548,"MEAN_MOTION_DDOT":0},{"OBJECT_NAME":"JILIN-1 07","OBJECT_ID":"2018-008E","EPOCH":"2026-07-14T05:06:03.036096","CLASSIFICATION_TYPE":"U","MEAN_MOTION":15.35154558,"ECCENTRICITY":0.0006821,"INCLINATION":97.1762,"RA_OF_ASC_NODE":214.427,"ARG_OF_PERICENTER":332.3906,"MEAN_ANOMALY":27.6975,"EPHEMERIS_TYPE":0,"NORAD_CAT_ID":43159,"ELEMENT_SET_NO":999,"REV_AT_EPOCH":46914,"BSTAR":0.00015707,"MEAN_MOTION_DOT":0.00005284,"MEAN_MOTION_DDOT":0},{"OBJECT_NAME":"JILIN-1 08","OBJECT_ID":"2018-008F","EPOCH":"2026-07-14T03:59:54.609792","CLASSIFICATION_TYPE":"U","MEAN_MOTION":15.34003078,"ECCENTRICITY":0.0005431,"INCLINATION":97.18,"RA_OF_ASC_NODE":213.6682,"ARG_OF_PERICENTER":356.6348,"MEAN_ANOMALY":3.4858,"EPHEMERIS_TYPE":0,"NORAD_CAT_ID":43160,"ELEMENT_SET_NO":999,"REV_AT_EPOCH":46908,"BSTAR":0.00011073,"MEAN_MOTION_DOT":0.00003567,"MEAN_MOTION_DDOT":0},{"OBJECT_NAME":"JILIN-1 09","OBJECT_ID":"2019-005B","EPOCH":"2026-07-14T05:24:48.074688","CLASSIFICATION_TYPE":"U","MEAN_MOTION":15.20736103,"ECCENTRICITY":0.0002429,"INCLINATION":97.4749,"RA_OF_ASC_NODE":289.9614,"ARG_OF_PERICENTER":38.7046,"MEAN_ANOMALY":321.4363,"EPHEMERIS_TYPE":0,"NORAD_CAT_ID":43943,"ELEMENT_SET_NO":999,"REV_AT_EPOCH":41325,"BSTAR":0.00011752,"MEAN_MOTION_DOT":0.00002516,"MEAN_MOTION_DDOT":0},{"OBJECT_NAME":"JILIN-1 10","OBJECT_ID":"2019-005E","EPOCH":"2026-07-14T05:03:14.029920","CLASSIFICATION_TYPE":"U","MEAN_MOTION":15.26000291,"ECCENTRICITY":0.0008485,"INCLINATION":97.4801,"RA_OF_ASC_NODE":294.0207,"ARG_OF_PERICENTER":173.0833,"MEAN_ANOMALY":187.0524,"EPHEMERIS_TYPE":0,"NORAD_CAT_ID":43946,"ELEMENT_SET_NO":999,"REV_AT_EPOCH":41343,"BSTAR":0.00013633,"MEAN_MOTION_DOT":0.00003434,"MEAN_MOTION_DDOT":0}]}
